{"fetched_at":"2026-07-21T17:53:47.972Z","source":"https://celestrak.org/NORAD/elements/gp.php?NAME=SENTINEL&FORMAT=JSON","constellation":"sentinel-6","records":[{"OBJECT_NAME":"SENTINEL-6A","OBJECT_ID":"2020-086A","EPOCH":"2026-07-20T23:17:25.813824","CLASSIFICATION_TYPE":"U","MEAN_MOTION":12.80930249,"ECCENTRICITY":0.00077854,"INCLINATION":66.041,"RA_OF_ASC_NODE":64.8847,"ARG_OF_PERICENTER":269.6488,"MEAN_ANOMALY":90.3636,"EPHEMERIS_TYPE":0,"NORAD_CAT_ID":46984,"ELEMENT_SET_NO":999,"REV_AT_EPOCH":26465,"BSTAR":-0.000007096777,"MEAN_MOTION_DOT":-6.3e-7,"MEAN_MOTION_DDOT":0},{"OBJECT_NAME":"SENTINEL-6B","OBJECT_ID":"2025-264A","EPOCH":"2026-07-20T23:17:55.874976","CLASSIFICATION_TYPE":"U","MEAN_MOTION":12.80930276,"ECCENTRICITY":0.00078384,"INCLINATION":66.041,"RA_OF_ASC_NODE":65.0102,"ARG_OF_PERICENTER":268.4946,"MEAN_ANOMALY":91.5171,"EPHEMERIS_TYPE":0,"NORAD_CAT_ID":66514,"ELEMENT_SET_NO":999,"REV_AT_EPOCH":3149,"BSTAR":0.000002035625,"MEAN_MOTION_DOT":-6.1e-7,"MEAN_MOTION_DDOT":0}]}
